STARLINK-32744          
1 62509U 25003Y   26068.00696371  .00035310  00000+0  12858-2 0  9993
2 62509  43.0018 293.1311 0001370 268.9979  91.0716 15.27597765 66449
PELICAN-6               
1 66703U 25276AP  26068.70709364  .00077979  00000+0  29726-2 0  9998
2 66703  97.4276 144.2072 0003569 157.8575 202.2819 15.26377980 15334
